STARLINK-32244          
1 60411U 24141P   26068.72861301  .00000166  00000+0  17725-4 0  9992
2 60411  53.1603 242.6167 0001275  83.1651 276.9495 15.30184555 89588
YAM-7                   
1 60504U 24149AN  26068.71799904  .00009009  00000+0  30984-3 0  9997
2 60504  97.3828 149.4631 0001973 296.5121  63.5918 15.30304554 86835
